[{"OBJECT_NAME":"IRIDIUM 143","OBJECT_ID":"2018-030K","EPOCH":"2026-03-09T17:00:55.388160","MEAN_MOTION":14.34218064,"ECCENTRICITY":0.00020577,"INCLINATION":86.4015,"RA_OF_ASC_NODE":332.16,"ARG_OF_PERICENTER":91.1443,"MEAN_ANOMALY":268.9989,"EPHEMERIS_TYPE":0,"CLASSIFICATION_TYPE":"U","NORAD_CAT_ID":43258,"ELEMENT_SET_NO":999,"REV_AT_EPOCH":41583,"BSTAR":2.1067696e-5,"MEAN_MOTION_DOT":7.9e-7,"MEAN_MOTION_DDOT":0},{"OBJECT_NAME":"SL-8 R\/B","OBJECT_ID":"1985-079B","EPOCH":"2026-03-09T22:30:16.050528","MEAN_MOTION":14.37751365,"ECCENTRICITY":0.00160431,"INCLINATION":74.0584,"RA_OF_ASC_NODE":45.1469,"ARG_OF_PERICENTER":234.2734,"MEAN_ANOMALY":125.6928,"EPHEMERIS_TYPE":0,"CLASSIFICATION_TYPE":"U","NORAD_CAT_ID":16012,"ELEMENT_SET_NO":999,"REV_AT_EPOCH":12129,"BSTAR":0.00010200187,"MEAN_MOTION_DOT":2.81e-6,"MEAN_MOTION_DDOT":0}]
